M2 PATHFINDER           
1 45727U 20037E   26068.47969609  .00004468  00000+0  32592-3 0  9994
2 45727  97.8158 258.5983 0012405 127.8041 232.4310 15.04175941310501
STARLINK-35201          
1 65664U 25211N   26068.69179024  .00008784  00000+0  61176-3 0  9998
2 65664  97.6020 114.0910 0001210  89.6272 270.5094 15.05678627 27044
